MEAN_MOTION;ECCENTRICITY;INCLINATION;RA_OF_ASC_NODE;ARG_OF_PERICENTER;MEAN_ANOMALY;BSTAR;MEAN_MOTION_DOT;MEAN_MOTION_DDOT;TYPE
14.54716164;0.0001108;47.0015;145.1145;20.4829;339.61;3.0942E-5;-3.2E-7;0;Orbcomm
14.54716367;0.0001058;47.0015;140.9207;25.1323;334.9612;2.9797E-5;-3.7E-7;0;Orbcomm
14.54716409;0.0001051;47.0014;140.2755;26.1488;333.9449;3.0034E-5;-3.6E-7;0;Orbcomm
14.54716692;0.0001007;47.0014;136.0817;31.0039;329.0904;3.2552E-5;-2.5E-7;0;Orbcomm
14.54716709;0.0001006;47.0014;135.7591;31.3274;328.767;3.2496E-5;-2.5E-7;0;Orbcomm
14.54716966;9.58E-5;47.0013;131.2427;37.009;323.086;3.3359E-5;-2.1E-7;0;Orbcomm
14.54716966;9.58E-5;47.0013;131.2427;37.009;323.086;3.3359E-5;-2.1E-7;0;Orbcomm
14.54717217;9.13E-5;47.0013;126.7262;42.8155;317.28;3.3547E-5;-2.0E-7;0;Orbcomm
14.54717476;8.73E-5;47.0014;122.2098;49.0474;311.0486;3.4041E-5;-1.8E-7;0;Orbcomm
14.54717668;8.41E-5;47.0014;117.6935;56.343;303.7534;3.1894E-5;-2.8E-7;0;Orbcomm
14.54717824;8.2E-5;47.0014;114.4675;60.7638;299.3328;3.0278E-5;-3.5E-7;0;Orbcomm
14.54717906;8.12E-5;47.0015;112.8545;63.7402;296.3566;3.0436E-5;-3.4E-7;0;Orbcomm
14.54718071;7.87E-5;47.0014;107.6929;72.4256;287.6714;2.562E-5;-5.5E-7;0;Orbcomm
14.54718254;7.69E-5;47.0015;103.499;79.763;280.3341;2.4196E-5;-6.1E-7;0;Orbcomm
14.54718266;7.69E-5;47.0014;103.1765;80.427;279.6701;2.3735E-5;-6.3E-7;0;Orbcomm
14.54718481;7.63E-5;47.0015;98.66;88.6711;271.426;2.3478E-5;-6.4E-7;0;Orbcomm
14.54718652;7.62E-5;47.0015;93.8209;97.234;262.863;2.2214E-5;-6.9E-7;0;Orbcomm
14.54718713;7.59E-5;47.0015;91.8853;100.49;259.607;2.1911E-5;-7.1E-7;0;Orbcomm
14.54718812;7.72E-5;47.0015;89.3044;104.9024;255.1946;2.1832E-5;-7.1E-7;0;Orbcomm
14.5471886;7.72E-5;47.0016;87.3687;108.0093;252.0875;2.0919E-5;-7.5E-7;0;Orbcomm
14.54718945;7.9E-5;47.0017;84.7879;111.9491;248.1477;2.0895E-5;-7.5E-7;0;Orbcomm
14.54719022;7.94E-5;47.0017;82.5296;115.919;244.1776;2.1112E-5;-7.4E-7;0;Orbcomm
14.54719061;8.06E-5;47.0018;81.2392;117.3792;242.7175;2.0966E-5;-7.5E-7;0;Orbcomm
14.54719132;8.14E-5;47.0018;79.9489;119.1755;240.921;2.1858E-5;-7.1E-7;0;Orbcomm
14.54719223;8.23E-5;47.0019;77.6906;123.0309;237.0654;2.2427E-5;-6.9E-7;0;Orbcomm
14.54719316;8.45E-5;47.0019;75.4325;125.7892;234.3071;2.2659E-5;-6.8E-7;0;Orbcomm
14.54719415;8.58E-5;47.002;73.1742;129.2918;230.8042;2.2915E-5;-6.6E-7;0;Orbcomm
14.54719535;8.8E-5;47.0021;70.5936;132.9492;227.1466;2.2915E-5;-6.6E-7;0;Orbcomm
14.54719631;8.98E-5;47.0022;68.3353;136.648;223.4475;2.3109E-5;-6.6E-7;0;Orbcomm
14.54719807;9.38E-5;47.0024;64.1417;142.4034;217.6916;2.2515E-5;-6.8E-7;0;Orbcomm
14.5471983;9.43E-5;47.0023;63.8191;142.6459;217.4491;2.2784E-5;-6.7E-7;0;Orbcomm
14.54720033;9.94E-5;47.0025;58.9802;148.5141;211.5803;2.1532E-5;-7.2E-7;0;Orbcomm
14.54720056;0.0001;47.0025;58.6576;148.6887;211.4057;2.1734E-5;-7.2E-7;0;Orbcomm
14.54720292;0.0001054;47.0026;53.8188;154.6184;205.4752;2.2228E-5;-6.9E-7;0;Orbcomm
14.5472042;0.0001068;47.0027;52.2059;155.8258;204.2676;2.4394E-5;-6.0E-7;0;Orbcomm
14.54720653;0.0001113;47.0028;48.3348;160.1434;199.9494;2.6238E-5;-5.2E-7;0;Orbcomm
14.54720684;0.0001115;47.0028;48.0122;160.3041;199.7887;2.6701E-5;-5.0E-7;0;Orbcomm
14.54720984;0.0001175;47.0029;43.1734;166.3501;193.7415;2.8174E-5;-4.4E-7;0;Orbcomm
14.54721165;0.0001216;47.003;39.6248;170.2207;189.8701;2.8211E-5;-4.4E-7;0;Orbcomm
14.54721511;0.0001283;47.0032;34.4634;175.0672;185.0225;3.0749E-5;-3.3E-7;0;Orbcomm
14.54721576;0.000129;47.0032;33.8182;175.3747;184.7149;3.1337E-5;-3.0E-7;0;Orbcomm
14.54721897;0.0001338;47.0033;29.6246;179.4292;180.6593;3.4133E-5;-1.8E-7;0;Orbcomm
14.54722147;0.0001386;47.0034;26.0761;182.8387;177.2489;3.4718E-5;-1.5E-7;0;Orbcomm
14.54722213;0.0001393;47.0034;25.1084;183.6213;176.4661;3.5287E-5;-1.3E-7;0;Orbcomm
14.54722659;0.0001446;47.0035;20.2697;187.2931;172.7932;3.9195E-5;4.0E-8;0;Orbcomm
14.54722912;0.0001498;47.0035;16.7213;190.0867;169.9987;3.8313E-5;0;0;Orbcomm
14.54723294;0.0001553;47.0035;12.5276;194.2286;165.8555;4.0389E-5;9.0E-8;0;Orbcomm
14.54723311;0.0001557;47.0035;12.205;194.2953;165.7887;4.0252E-5;8.0E-8;0;Orbcomm
14.54723673;0.0001612;47.0034;7.6888;197.6016;162.4812;4.0522E-5;1.0E-7;0;Orbcomm
14.54723689;0.0001617;47.0034;7.3663;197.795;162.2877;4.0371E-5;9.0E-8;0;Orbcomm
14.54724016;0.0001667;47.0033;2.8501;200.6445;159.4372;3.9093E-5;3.0E-8;0;Orbcomm
14.54724136;0.0001674;47.0033;1.5598;201.6381;158.4432;4.0099E-5;8.0E-8;0;Orbcomm
14.54724696;0.0001774;47.0031;353.8175;206.8418;153.2374;3.8872E-5;2.0E-8;0;Orbcomm
14.54724986;0.0001819;47.0031;348.6561;210.2117;149.8662;3.6146E-5;-9.0E-8;0;Orbcomm
14.54725157;0.0001864;47.003;344.7851;213.3327;146.744;3.3819E-5;-1.9E-7;0;Orbcomm
14.54725402;0.0001928;47.0029;339.6236;216.8602;143.215;3.1742E-5;-2.8E-7;0;Orbcomm
14.54725419;0.0001931;47.0029;339.301;217.0391;143.036;3.1785E-5;-2.8E-7;0;Orbcomm
14.54725617;0.0001971;47.0029;334.7847;220.4284;139.6453;2.9128E-5;-4.0E-7;0;Orbcomm
14.54725688;0.0001979;47.0028;333.817;220.8676;139.206;2.9635E-5;-3.8E-7;0;Orbcomm
14.54725879;0.0002021;47.0028;329.9459;223.8331;136.2393;2.9048E-5;-4.0E-7;0;Orbcomm
14.54726023;0.0002051;47.0027;327.0425;225.8933;134.1783;2.8739E-5;-4.1E-7;0;Orbcomm
14.54726076;0.0002064;47.0026;326.0747;226.349;133.7223;2.8228E-5;-4.4E-7;0;Orbcomm
14.5472623;0.0002106;47.0025;322.2035;228.559;131.5113;2.7162E-5;-4.8E-7;0;Orbcomm
14.54726272;0.000211;47.0025;321.5584;228.9669;131.1032;2.6736E-5;-5.0E-7;0;Orbcomm
14.54726322;0.0002116;47.0024;320.5906;229.597;130.4729;2.7356E-5;-4.7E-7;0;Orbcomm
14.54726464;0.0002143;47.0023;317.3646;231.885;128.1841;2.7205E-5;-4.8E-7;0;Orbcomm
14.54726497;0.0002153;47.0023;316.3968;232.324;127.7449;2.6644E-5;-5.0E-7;0;Orbcomm
14.54726734;0.0002205;47.0022;310.59;235.6454;124.4222;2.6E-5;-5.3E-7;0;Orbcomm
14.54726875;0.0002245;47.0021;306.3962;238.3963;121.6702;2.5094E-5;-5.7E-7;0;Orbcomm
14.54727018;0.0002283;47.0021;302.2022;240.9775;119.088;2.3939E-5;-6.2E-7;0;Orbcomm
14.54727045;0.0002282;47.0021;301.8797;241.2634;118.802;2.4666E-5;-5.9E-7;0;Orbcomm
14.54727188;0.0002314;47.002;297.3632;244.273;115.7915;2.3306E-5;-6.5E-7;0;Orbcomm
14.54727207;0.0002315;47.002;297.0406;244.4829;115.5816;2.3416E-5;-6.4E-7;0;Orbcomm
14.54727372;0.000235;47.002;292.5242;247.3082;112.7553;2.1997E-5;-7.1E-7;0;Orbcomm
14.54727379;0.0002351;47.002;292.2016;247.4829;112.5807;2.1659E-5;-7.2E-7;0;Orbcomm
14.54727466;0.0002372;47.002;289.2982;249.3644;110.6986;2.0107E-5;-7.9E-7;0;Orbcomm
14.54727644;0.00024;47.002;284.7818;252.2482;107.8141;1.9504E-5;-8.1E-7;0;Orbcomm
14.54727686;0.0002396;47.002;283.1688;253.4828;106.5793;1.9007E-5;-8.4E-7;0;Orbcomm
14.54727812;0.0002414;47.002;279.9428;255.5949;104.4667;1.8064E-5;-8.8E-7;0;Orbcomm
14.54727847;0.0002416;47.002;278.9751;256.2326;103.829;1.8442E-5;-8.6E-7;0;Orbcomm
14.54728023;0.0002435;47.0019;275.4265;258.5613;101.4997;1.9086E-5;-8.3E-7;0;Orbcomm
14.54728242;0.0002455;47.0019;270.5875;261.5534;98.5072;2.0228E-5;-7.8E-7;0;Orbcomm
14.54728367;0.0002458;47.0019;268.9746;262.619;97.4415;2.2392E-5;-6.9E-7;0;Orbcomm
14.54728587;0.0002476;47.0018;264.4582;265.3594;94.7007;2.3565E-5;-6.4E-7;0;Orbcomm
14.54728799;0.0002498;47.0018;260.2644;268.0304;92.0294;2.5252E-5;-5.7E-7;0;Orbcomm
14.54728989;0.0002512;47.0018;256.7157;270.0027;90.0569;2.6393E-5;-5.2E-7;0;Orbcomm
14.54729078;0.000251;47.0018;255.1028;271.2301;88.8296;2.7073E-5;-4.9E-7;0;Orbcomm
14.54729218;0.0002513;47.0018;251.8767;273.3106;86.7491;2.6491E-5;-5.1E-7;0;Orbcomm
14.54729468;0.0002511;47.0019;246.7152;276.8076;83.2522;2.7308E-5;-4.8E-7;0;Orbcomm
14.54729766;0.0002505;47.0019;241.2311;280.5001;79.5601;2.7301E-5;-4.8E-7;0;Orbcomm
14.54729968;0.0002506;47.0019;237.6826;282.7671;77.2932;2.6908E-5;-4.9E-7;0;Orbcomm
14.54730027;0.00025;47.0019;236.7149;283.5299;76.5306;2.73E-5;-4.8E-7;0;Orbcomm
14.54730356;0.0002502;47.0018;233.1663;285.7481;74.3127;3.1238E-5;-3.1E-7;0;Orbcomm
14.5473037;0.0002492;47.0018;232.1986;286.5254;73.5356;2.9414E-5;-3.9E-7;0;Orbcomm
14.54730705;0.0002484;47.0017;227.3598;289.7185;70.3431;3.0012E-5;-3.6E-7;0;Orbcomm
14.54731303;0.0002468;47.0015;222.8435;292.8079;67.2544;4.2049E-5;1.6E-7;0;Orbcomm
14.54731311;0.000246;47.0014;219.2948;295.0283;65.0346;3.3566E-5;-2.1E-7;0;Orbcomm
14.54731378;0.0002453;47.0014;218.3271;295.8216;64.2415;3.3999E-5;-1.9E-7;0;Orbcomm
14.5473168;0.0002435;47.0012;213.4882;299.1327;60.9313;3.3983E-5;-1.9E-7;0;Orbcomm
14.5473195;0.0002414;47.0011;208.9717;302.2086;57.8564;3.3961E-5;-1.9E-7;0;Orbcomm
14.54732085;0.0002405;47.0011;206.3909;303.9446;56.121;3.3491E-5;-2.1E-7;0;Orbcomm
14.54732184;0.0002393;47.0011;204.4553;305.3568;54.7093;3.3027E-5;-2.3E-7;0;Orbcomm
14.54732358;0.000237;47.001;200.5841;307.912;52.1549;3.0906E-5;-3.2E-7;0;Orbcomm
14.54732413;0.0002365;47.001;199.6164;308.7208;51.3464;3.0755E-5;-3.3E-7;0;Orbcomm
14.5473262;0.0002338;47.001;195.7452;311.4801;48.5882;2.9811E-5;-3.7E-7;0;Orbcomm
14.54732632;0.0002338;47.001;195.4226;311.7583;48.3101;2.9692E-5;-3.7E-7;0;Orbcomm
14.54732653;0.0002334;47.001;195.1;312.0152;48.0533;2.962E-5;-3.8E-7;0;Orbcomm
14.54732795;0.0002304;47.0009;190.9063;314.9883;45.0815;2.6084E-5;-5.3E-7;0;Orbcomm
14.54732823;0.00023;47.0009;190.2611;315.5067;44.5632;2.5534E-5;-5.5E-7;0;Orbcomm
14.54732967;0.0002269;47.0008;186.0673;318.6501;41.4211;2.2576E-5;-6.8E-7;0;Orbcomm
14.54732981;0.0002266;47.0008;185.7447;318.9077;41.1637;2.2286E-5;-6.9E-7;0;Orbcomm
14.54733126;0.000223;47.0007;181.2283;322.3525;37.7203;1.9358E-5;-8.2E-7;0;Orbcomm
14.54733203;0.0002211;47.0007;178.6474;324.1877;35.8859;1.834E-5;-8.6E-7;0;Orbcomm
14.54733268;0.0002193;47.0006;176.7119;325.8193;34.2549;1.7855E-5;-8.8E-7;0;Orbcomm
14.54733346;0.0002166;47.0005;173.8084;327.9894;32.0858;1.658E-5;-9.4E-7;0;Orbcomm
14.54733398;0.0002148;47.0005;171.8728;329.587;30.489;1.6222E-5;-9.6E-7;0;Orbcomm
14.54733478;0.0002123;47.0005;168.9693;331.919;28.1579;1.5461E-5;-9.9E-7;0;Orbcomm
14.54733565;0.0002097;47.0004;165.7433;334.4708;25.6072;1.6005E-5;-9.6E-7;0;Orbcomm
14.54733668;0.0002063;47.0004;162.8398;337.0063;23.0728;1.7594E-5;-9.0E-7;0;Orbcomm
